NORAD_CAT_ID,OBJECT_NAME,OBJECT_TYPE,EPOCH,MEAN_MOTION,ECCENTRICITY,INCLINATION,RA_OF_ASC_NODE,ARG_OF_PERICENTER,MEAN_ANOMALY,BSTAR,MEAN_MOTION_DOT,MEAN_MOTION_DDOT,TLE_LINE0,TLE_LINE1,TLE_LINE2,SEMIMAJOR_AXIS,PERIOD,APOGEE,PERIGEE,DECAYED
53395.0,STARLINK-4534,PAYLOAD,2022-10-20 14:00:01,15.08856378,0.0002171999999999,53.2164,273.2221,39.9927,254.8042,-0.0016158,-0.00025924,0.0,0 STARLINK-4534,1 53395U 22097H   22293.58334491 -.00025924  00000-0 -16158-2 0  9997,2 53395  53.2164 273.2221 0002172  39.9927 254.8042 15.08856378  1308,6917.83,95.437,541.198,538.193,0.0
53395.0,STARLINK-4534,PAYLOAD,2022-10-20 22:00:00,15.08852463,0.0002005,53.2168,271.7199,42.8948,263.5082,-0.0024848,-0.00039631,0.0,0 STARLINK-4534,1 53395U 22097H   22293.91667824 -.00039631  00000-0 -24848-2 0  9998,2 53395  53.2168 271.7199 0002005  42.8948 263.5082 15.08852463 11460,6917.842,95.437,541.094,538.32,0.0
53395.0,STARLINK-4534,PAYLOAD,2022-10-21 14:00:01,15.08857692,0.0002164,53.2163,268.7328,39.8121,289.7675,-0.0015725,-0.0002524,0.0,0 STARLINK-4534,1 53395U 22097H   22294.58334491 -.00025240  00000-0 -15725-2 0  9998,2 53395  53.2163 268.7328 0002164  39.8121 289.7675 15.08857692  1309,6917.826,95.436,541.188,538.194,0.0
53395.0,STARLINK-4534,PAYLOAD,2022-10-21 22:00:00,15.08852676,0.0002041999999999,53.2164,267.2375,44.3133,296.8675,-0.00081237,-0.00013199,0.0,0 STARLINK-4534,1 53395U 22097H   22294.91667824 -.00013199  00000-0 -81237-3 0  9996,2 53395  53.2164 267.2375 0002042  44.3133 296.8675 15.08852676  1301,6917.842,95.437,541.119,538.294,0.0
53395.0,STARLINK-4534,PAYLOAD,2022-10-22 14:00:01,15.08861022,0.0002156,53.2164,264.2454,39.1853,325.1835,-0.0022224,-0.00035505,0.0,0 STARLINK-4534,1 53395U 22097H   22295.58334491 -.00035505  00000-0 -22224-2 0  9996,2 53395  53.2164 264.2454 0002156  39.1853 325.1835 15.08861022  1302,6917.816,95.436,541.173,538.19,0.0
53395.0,STARLINK-4534,PAYLOAD,2022-10-22 22:00:00,15.08844601,0.0002045999999999,53.2168,262.7481,43.7672,332.2142,0.0010957,0.00017195,0.0,0 STARLINK-4534,1 53395U 22097H   22295.91667824  .00017195  00000-0  10957-2 0  9995,2 53395  53.2168 262.7481 0002046  43.7672 332.2142 15.08844601  1301,6917.866,95.437,541.1469999999998,538.316,0.0
53395.0,STARLINK-4534,PAYLOAD,2022-10-23 08:00:01,15.08845479,0.0002234,53.217,260.8794,37.915,82.6484,0.0021495999999999,0.00034094,0.0,0 STARLINK-4534,1 53395U 22097H   22296.33335648  .00034094  00000-0  21496-2 0  9995,2 53395  53.2170 260.8794 0002234  37.9150  82.6484 15.08845479 11822,6917.864000000001,95.437,541.274,538.183,0.0
53395.0,STARLINK-4534,PAYLOAD,2022-10-23 14:00:01,15.08866937,0.0002139,53.2171,259.7558,38.7629,0.4423,-0.0025318,-0.00040387,0.0,0 STARLINK-4534,1 53395U 22097H   22296.58334491 -.00040387  00000-0 -25318-2 0  9998,2 53395  53.2171 259.7558 0002139  38.7629   0.4423 15.08866937  1307,6917.7980000000025,95.436,541.143,538.183,0.0
53395.0,STARLINK-4534,PAYLOAD,2022-10-23 22:00:00,15.08859085,0.0002061,53.2175,258.2587,42.4708,8.3372,-0.0021566,-0.00034465,0.0,0 STARLINK-4534,1 53395U 22097H   22296.91667824 -.00034465  00000-0 -21566-2 0  9995,2 53395  53.2175 258.2587 0002061  42.4708   8.3372 15.08859085  1307,6917.821999999999,95.436,541.113,538.261,0.0
53395.0,STARLINK-4534,PAYLOAD,2022-10-24 14:00:01,15.08773666,0.0001996,53.2178,255.2664,35.0777,38.8942,0.0025307,0.00040145,0.0,0 STARLINK-4534,1 53395U 22097H   22297.58334491  .00040145  00000-0  25307-2 0  9997,2 53395  53.2178 255.2664 0001996  35.0777  38.8942 15.08773666  1304,6918.083000000001,95.442,541.3290000000002,538.567,0.0
53395.0,STARLINK-4534,PAYLOAD,2022-10-24 22:00:00,15.08819311,0.0001889999999999,53.2181,253.7697,37.3845,48.1123,0.0011177,0.00017535,0.0,0 STARLINK-4534,1 53395U 22097H   22297.91667824  .00017535  00000-0  11177-2 0  9990,2 53395  53.2181 253.7697 0001890  37.3845  48.1123 15.08819311  1304,6917.944,95.439,541.116,538.501,0.0
53395.0,STARLINK-4534,PAYLOAD,2022-10-25 00:00:00,15.08834022,0.0001934,53.2182,253.3961,36.4891,141.8977,-0.00074774,-0.00012167,0.0,0 STARLINK-4534,1 53395U 22097H   22298.00001157 -.00012167  00000-0 -74774-3 0  9993,2 53395  53.2182 253.3961 0001934  36.4891 141.8977 15.08834022 12075,6917.899,95.438,541.102,538.4259999999998,0.0
53395.0,STARLINK-4534,PAYLOAD,2022-10-25 14:00:01,15.08843949,0.0001976999999999,53.2183,250.7775,35.8187,72.8313,-0.00075587,-0.00012299,0.0,0 STARLINK-4534,1 53395U 22097H   22298.58334491 -.00012299  00000-0 -75587-3 0  9995,2 53395  53.2183 250.7775 0001977  35.8187  72.8313 15.08843949  1307,6917.868,95.437,541.101,538.366,0.0
53395.0,STARLINK-4534,PAYLOAD,2022-10-25 22:00:01,15.08858814,0.0001902,53.2185,249.2808,39.0724,81.2303,-0.00033659,-5.644e-05,0.0,0 STARLINK-4534,1 53395U 22097H   22298.91668981 -.00005644  00000-0 -33659-3 0  9996,2 53395  53.2185 249.2808 0001902  39.0724  81.2303 15.08858814 12212,6917.823,95.436,541.004,538.372,0.0
53395.0,STARLINK-4534,PAYLOAD,2022-10-26 14:00:01,15.08846137,0.0001904,53.2182,246.2886,36.3589,107.089,-0.00035152,-5.879e-05,0.0,0 STARLINK-4534,1 53395U 22097H   22299.58334491 -.00005879  00000-0 -35152-3 0  9996,2 53395  53.2182 246.2886 0001904  36.3589 107.0890 15.08846137  1304,6917.861999999999,95.437,541.044,538.409,0.0
53395.0,STARLINK-4534,PAYLOAD,2022-10-26 22:00:00,15.08859967,0.0001918,53.2184,244.7922,41.2926,113.7468,-0.0024903,-0.00039725,0.0,0 STARLINK-4534,1 53395U 22097H   22299.91667824 -.00039725  00000-0 -24903-2 0  9990,2 53395  53.2184 244.7922 0001918  41.2926 113.7468 15.08859967  1305,6917.819,95.436,541.011,538.3580000000002,0.0
53395.0,STARLINK-4534,PAYLOAD,2022-10-27 08:00:01,15.08822056,0.0002133999999999,53.2178,242.9234,37.3881,222.1567,0.0029584,0.00047087,0.0,0 STARLINK-4534,1 53395U 22097H   22300.33334491  .00047087  00000-0  29584-2 0  9998,2 53395  53.2178 242.9234 0002134  37.3881 222.1567 15.08822056 12420,6917.935,95.439,541.2769999999998,538.3240000000002,0.0
53395.0,STARLINK-4534,PAYLOAD,2022-10-27 14:00:01,15.08849722,0.000199,53.2178,241.7997,41.69,136.6117,0.00023182,3.404e-05,0.0,0 STARLINK-4534,1 53395U 22097H   22300.58335648  .00003404  00000-0  23182-3 0  9994,2 53395  53.2178 241.7997 0001990  41.6900 136.6117 15.08849722  1306,6917.851,95.437,541.092,538.339,0.0
53395.0,STARLINK-4534,PAYLOAD,2022-10-27 22:00:00,15.08874282,0.0002028,53.2179,240.3037,46.5171,143.3256,-0.0026704,-0.00042578,0.0,0 STARLINK-4534,1 53395U 22097H   22300.91667824 -.00042578  00000-0 -26704-2 0  9994,2 53395  53.2179 240.3037 0002028  46.5171 143.3256 15.08874282  1302,6917.776,95.435,541.044,538.238,0.0
53395.0,STARLINK-4534,PAYLOAD,2022-10-28 14:00:01,15.08834511,0.0002019,53.2173,237.3109,43.6895,169.4506,0.000744,0.00011571,0.0,0 STARLINK-4534,1 53395U 22097H   22301.58335648  .00011571  00000-0  74400-3 0  9998,2 53395  53.2173 237.3109 0002019  43.6895 169.4506 15.08834511  1301,6917.897,95.438,541.159,538.365,0.0
53395.0,STARLINK-4534,PAYLOAD,2022-10-28 22:00:01,15.0885572,0.000199,53.2172,235.815,45.2912,179.4375,-0.0020605999999999,-0.00032948,0.0,0 STARLINK-4534,1 53395U 22097H   22301.91668981 -.00032948  00000-0 -20606-2 0  9995,2 53395  53.2172 235.8150 0001990  45.2912 179.4375 15.08855720  1304,6917.831999999999,95.437,541.0740000000002,538.321,0.0
53395.0,STARLINK-4534,PAYLOAD,2022-10-29 08:00:01,15.0884548,0.0002073,53.2167,233.9457,37.8841,291.2870000000001,8.251600000000001e-05,1.025e-05,0.0,0 STARLINK-4534,1 53395U 22097H   22302.33334491  .00001025  00000-0  82516-4 0  9998,2 53395  53.2167 233.9457 0002073  37.8841 291.2870 15.08845480 12732,6917.864000000001,95.437,541.163,538.295,0.0
53395.0,STARLINK-4534,PAYLOAD,2022-10-29 12:00:00,15.08849847,0.0001955,53.2169,233.1966,40.2886,114.683,-0.00061992,-0.00010144,0.0,0 STARLINK-4534,1 53395U 22097H   22302.50001157 -.00010144  00000-0 -61992-3 0  9995,2 53395  53.2169 233.1966 0001955  40.2886 114.6830 15.08849847  1302,6917.85,95.437,541.068,538.363,0.0
53395.0,STARLINK-4534,PAYLOAD,2022-10-29 22:00:01,15.08880606,0.000193,53.2169,231.326,42.5567,216.9758,-0.00091737,-0.00014875,0.0,0 STARLINK-4534,1 53395U 22097H   22302.91668981 -.00014875  00000-0 -91737-3 0  9999,2 53395  53.2169 231.3260 0001930  42.5567 216.9758 15.08880606  1306,6917.755999999999,95.435,540.956,538.286,0.0
53395.0,STARLINK-4534,PAYLOAD,2022-10-30 14:00:01,15.088251,0.0001942,53.217,228.3329,38.6617,244.0548,-0.0030583999999999,-0.00048616,0.0,0 STARLINK-4534,1 53395U 22097H   22303.58334491 -.00048616  00000-0 -30584-2 0  9991,2 53395  53.2170 228.3329 0001942  38.6617 244.0548 15.08825100  1302,6917.926,95.438,541.134,538.447,0.0
53395.0,STARLINK-4534,PAYLOAD,2022-10-30 22:00:01,15.08829115,0.0001996999999999,53.217,226.8371,40.9306,253.3927,1.4878e-05,-5.1e-07,0.0,0 STARLINK-4534,1 53395U 22097H   22303.91668981 -.00000051  00000-0  14878-4 0  9992,2 53395  53.2170 226.8371 0001997  40.9306 253.3927 15.08829115  1307,6917.9140000000025,95.438,541.16,538.3969999999998,0.0
53395.0,STARLINK-4534,PAYLOAD,2022-10-31 14:00:01,15.08814676,0.0001914,53.2172,223.844,37.369,280.0585,0.00042189,6.428e-05,0.0,0 STARLINK-4534,1 53395U 22097H   22304.58334491  .00006428  00000-0  42189-3 0  9990,2 53395  53.2172 223.8440 0001914  37.3690 280.0585 15.08814676  1301,6917.958000000001,95.439,541.1469999999998,538.499,0.0
53395.0,STARLINK-4534,PAYLOAD,2022-10-31 22:00:01,15.0883001,0.0001949,53.2173,222.3482,37.4259,291.6299,-0.00057127,-9.366e-05,0.0,0 STARLINK-4534,1 53395U 22097H   22304.91668981 -.00009366  00000-0 -57127-3 0  9995,2 53395  53.2173 222.3482 0001949  37.4259 291.6299 15.08830010  1302,6917.911,95.438,541.124,538.428,0.0
53395.0,STARLINK-4534,PAYLOAD,2022-11-01 00:00:02,15.08826159,0.0002023,53.2172,221.9746,36.3817,25.57,-0.00017311,-3.041e-05,0.0,0 STARLINK-4534,1 53395U 22097H   22305.00002315 -.00003041  00000-0 -17311-3 0  9994,2 53395  53.2172 221.9746 0002023  36.3817  25.5700 15.08826159 13135,6917.9230000000025,95.438,541.187,538.388,0.0
